<?xml version='1.0' encoding='utf-8'?>
<q:quakeml xmlns="http://quakeml.org/xmlns/bed/1.2" xmlns:q="http://quakeml.org/xmlns/quakeml/1.2">
  <eventParameters publicID="smi:local/ff1e3171-118d-4262-a4cd-e47603f52213">
    <event publicID="smi:local/0774aecf-ec61-4581-b764-cb3cef3acbea">
      <preferredOriginID>smi:local/1cc3af02-2518-4b1c-8e05-5b42fde66bc5</preferredOriginID>
      <preferredMagnitudeID>smi:local/d24a4655-c14f-47c0-badf-00d1016fdcbb</preferredMagnitudeID>
      <type>earthquake</type>
      <description>
        <text>e20170212.201626</text>
      </description>
      <origin publicID="smi:local/b7826c31-0706-4632-837b-436bf2632710">
        <time>
          <value>2017-02-12T20:16:16.489000Z</value>
        </time>
        <latitude>
          <value>14.9777</value>
        </latitude>
        <longitude>
          <value>-61.4497</value>
        </longitude>
        <depth>
          <value>197890.0</value>
        </depth>
        <methodID>smi:local/SDX_hypo71</methodID>
        <earthModelID>smi:local/b738e69c-8e24-40d4-8e71-47c04e452a55</earthModelID>
        <quality>
          <associatedPhaseCount>112</associatedPhaseCount>
          <usedPhaseCount>112</usedPhaseCount>
          <associatedStationCount>0</associatedStationCount>
          <usedStationCount>0</usedStationCount>
          <azimuthalGap>45.0</azimuthalGap>
          <minimumDistance>23.2745</minimumDistance>
          <maximumDistance>479.015</maximumDistance>
          <medianDistance>152.609</medianDistance>
        </quality>
        <type>hypocenter</type>
        <evaluationMode>manual</evaluationMode>
        <evaluationStatus>confirmed</evaluationStatus>
        <creationInfo>
          <creationTime>2018-02-15T12:44:28.329000Z</creationTime>
        </creationInfo>
        <arrival publicID="smi:local/73e3f006-33bd-4d89-b301-e81f9919c337">
          <pickID>smi:local/9cb00463-5ec3-4339-bb78-147055282c57</pickID>
          <phase>P</phase>
          <azimuth>172.41611586286913</azimuth>
          <distance>0.7345246881283259</distance>
          <timeWeight>0.0</timeWeight>
        </arrival>
        <arrival publicID="smi:local/840d5b6b-e227-4ed0-95fe-ccff345c5cc9">
          <pickID>smi:local/8f6e9b81-4a5e-4f3c-923d-fe1f9b9f98d1</pickID>
          <phase>P</phase>
          <azimuth>196.02920080898258</azimuth>
          <distance>0.21027125519181827</distance>
          <timeWeight>0.0</timeWeight>
        </arrival>
        <arrival publicID="smi:local/87822c97-b63b-4c01-b70f-6f4c901435e8">
          <pickID>smi:local/9b3938f2-501d-4b12-b072-5fafe74794a0</pickID>
          <phase>P</phase>
          <azimuth>60.405733635027225</azimuth>
          <distance>0.7108112869884821</distance>
          <timeWeight>0.0</timeWeight>
        </arrival>
        <arrival publicID="smi:local/e4fed6de-d3fb-4499-88f9-94456eb6d1b9">
          <pickID>smi:local/01c60304-799c-4e95-88b3-5d0eb72c36af</pickID>
          <phase>P</phase>
          <azimuth>91.17289270477052</azimuth>
          <distance>0.8089959946602409</distance>
          <timeWeight>0.0</timeWeight>
        </arrival>
        <arrival publicID="smi:local/373a6b9f-5668-4013-a1b3-10c390870fde">
          <pickID>smi:local/79db7843-4661-4b5a-bcd4-d24ef39aaf11</pickID>
          <phase>P</phase>
          <azimuth>122.86903481430163</azimuth>
          <distance>1.108018344935656</distance>
          <timeWeight>0.0</timeWeight>
        </arrival>
        <arrival publicID="smi:local/67e489f9-4d74-43f2-96c4-367327ca0384">
          <pickID>smi:local/420425cc-d2d9-4aa0-9ade-bc7f50b9bb34</pickID>
          <phase>P</phase>
          <azimuth>166.42910783650663</azimuth>
          <distance>2.5147137926878997</distance>
          <timeWeight>0.0</timeWeight>
        </arrival>
        <arrival publicID="smi:local/33c5c449-0fa7-4a6c-860d-80ebfd92476d">
          <pickID>smi:local/294a50fa-d11d-410f-b72b-080857504134</pickID>
          <phase>P</phase>
          <azimuth>202.7514323917636</azimuth>
          <distance>1.5806961212844186</distance>
          <timeWeight>0.0</timeWeight>
        </arrival>
        <arrival publicID="smi:local/0ec1f6f8-17be-456d-963c-3264c1e26dc5">
          <pickID>smi:local/354b7dfd-c82c-40c5-afb2-396cbd010671</pickID>
          <phase>P</phase>
          <azimuth>226.2489418331984</azimuth>
          <distance>0.3183652432653828</distance>
          <timeWeight>0.0</timeWeight>
        </arrival>
        <arrival publicID="smi:local/19545910-0e78-4927-8f4a-2a08baf46548">
          <pickID>smi:local/3140a6c4-9997-441a-841d-b8a54bf7810b</pickID>
          <phase>P</phase>
          <azimuth>251.04498397601623</azimuth>
          <distance>0.6921770660919936</distance>
          <timeWeight>0.0</timeWeight>
        </arrival>
        <arrival publicID="smi:local/d44f15b5-1ab6-482e-991a-7af248f3d45a">
          <pickID>smi:local/a2277acb-6a56-4069-98cc-edefc093b9e8</pickID>
          <phase>P</phase>
          <azimuth>251.1094065302727</azimuth>
          <distance>1.042553011285195</distance>
          <timeWeight>0.0</timeWeight>
        </arrival>
        <arrival publicID="smi:local/4979aa88-59db-460b-98a0-08953fec597f">
          <pickID>smi:local/02554a2b-a3c6-4b95-9577-19e81fe47cce</pickID>
          <phase>P</phase>
          <azimuth>272.0811046705675</azimuth>
          <distance>0.7807768101056496</distance>
          <timeWeight>0.0</timeWeight>
        </arrival>
        <arrival publicID="smi:local/cada1fe6-9d68-4931-b0cc-073a8da04310">
          <pickID>smi:local/c7c555dd-d3f2-4831-89e7-f2e64a145e6d</pickID>
          <phase>P</phase>
          <azimuth>301.6956366829071</azimuth>
          <distance>1.0984926410422595</distance>
          <timeWeight>0.0</timeWeight>
        </arrival>
        <arrival publicID="smi:local/f14b84a1-0ee2-4385-86dd-64be533a2d9f">
          <pickID>smi:local/636b12ec-a593-4792-ac8b-2c9d0053630e</pickID>
          <phase>P</phase>
          <azimuth>343.69219246581486</azimuth>
          <distance>1.8452211311587552</distance>
          <timeWeight>0.0</timeWeight>
        </arrival>
        <arrival publicID="smi:local/b66bfd49-571d-4e71-991f-2a7aac59f182">
          <pickID>smi:local/ebb38726-35dd-41e9-918e-78d6955d64d6</pickID>
          <phase>P</phase>
          <azimuth>332.1668485524063</azimuth>
          <distance>1.7057146481576633</distance>
          <timeWeight>0.0</timeWeight>
        </arrival>
        <arrival publicID="smi:local/5d177cad-3395-4161-8735-83e38b5109d5">
          <pickID>smi:local/b14ae1fc-c36a-414f-95e9-f8c427fcc85a</pickID>
          <phase>P</phase>
          <azimuth>317.7032711822606</azimuth>
          <distance>1.631246553821759</distance>
          <timeWeight>0.0</timeWeight>
        </arrival>
        <arrival publicID="smi:local/a27ec8ab-e2c6-42be-b794-3d462e435575">
          <pickID>smi:local/39bc6426-f77d-457c-9526-53c79afbef2d</pickID>
          <phase>P</phase>
          <azimuth>309.20171238657633</azimuth>
          <distance>1.6190582492414884</distance>
          <timeWeight>0.0</timeWeight>
        </arrival>
        <arrival publicID="smi:local/bc49a2c2-cd80-40e4-9381-e92fd24617d3">
          <pickID>smi:local/55faa4fb-72bd-463e-851c-c7cb57967713</pickID>
          <phase>P</phase>
          <azimuth>359.9932408325328</azimuth>
          <distance>2.4423000169880766</distance>
          <timeWeight>0.0</timeWeight>
        </arrival>
        <arrival publicID="smi:local/e246e692-1f47-4819-9841-89811c630c41">
          <pickID>smi:local/ea80ce69-4d33-4b1d-b5bf-414c25c0d53b</pickID>
          <phase>P</phase>
          <azimuth>3.806617635582509</azimuth>
          <distance>2.6031458710055126</distance>
          <timeWeight>0.0</timeWeight>
        </arrival>
        <arrival publicID="smi:local/7ca37ee0-4fe4-43c8-a5da-9546482d9d0e">
          <pickID>smi:local/25b6757c-2f76-42e4-86ad-cd4097ad11de</pickID>
          <phase>P</phase>
          <azimuth>83.05521910994251</azimuth>
          <distance>1.3707480461712727</distance>
          <timeWeight>0.0</timeWeight>
        </arrival>
        <arrival publicID="smi:local/a9f67257-5335-4611-a12c-f3dfb4642a48">
          <pickID>smi:local/6b63e4d2-f31f-43fb-937f-f9f0b2e37497</pickID>
          <phase>P</phase>
          <azimuth>152.74624484475356</azimuth>
          <distance>2.0495942832806198</distance>
          <timeWeight>0.0</timeWeight>
        </arrival>
        <arrival publicID="smi:local/c02cc8bb-6db8-485f-a1a6-322f2ccd8ef6">
          <pickID>smi:local/912e951e-5a06-49d6-94ba-88d3a302122a</pickID>
          <phase>P</phase>
          <azimuth>176.57072443237502</azimuth>
          <distance>2.983106981473883</distance>
          <timeWeight>0.0</timeWeight>
        </arrival>
        <arrival publicID="smi:local/822bf5c3-f9f7-4c90-b8d2-9c0a533cc736">
          <pickID>smi:local/3df847ba-fbb0-429d-b363-bd834851756c</pickID>
          <phase>P</phase>
          <azimuth>215.37476438528333</azimuth>
          <distance>0.9278541817518161</distance>
          <timeWeight>0.0</timeWeight>
        </arrival>
        <arrival publicID="smi:local/8abf4ae2-2ba8-487f-9b35-b0f50b9628df">
          <pickID>smi:local/ad4fd4a1-3c0d-45da-9248-26c620639ddc</pickID>
          <phase>P</phase>
          <azimuth>334.61532046866876</azimuth>
          <distance>1.4074014864041224</distance>
          <timeWeight>0.0</timeWeight>
        </arrival>
        <arrival publicID="smi:local/a66221a4-f046-42f0-8b6f-de7ac6def099">
          <pickID>smi:local/8ea0e975-8d28-41db-9c84-8631c408bfc4</pickID>
          <phase>P</phase>
          <azimuth>325.76722578166925</azimuth>
          <distance>1.660571426287214</distance>
          <timeWeight>0.0</timeWeight>
        </arrival>
        <arrival publicID="smi:local/92fc8287-6ac9-44d8-b6e1-4ae032098c8d">
          <pickID>smi:local/9cb94bf7-247f-4a47-b52b-179916e3f20a</pickID>
          <phase>S</phase>
          <azimuth>226.2489418331984</azimuth>
          <distance>0.3183652432653828</distance>
          <timeWeight>0.0</timeWeight>
        </arrival>
        <arrival publicID="smi:local/a584d851-9b6c-42a3-86e0-7be23b96ceb7">
          <pickID>smi:local/08a54ffa-e560-43ea-b10c-948cb3e02f07</pickID>
          <phase>S</phase>
          <azimuth>251.04498397601623</azimuth>
          <distance>0.6921770660919936</distance>
          <timeWeight>0.0</timeWeight>
        </arrival>
        <arrival publicID="smi:local/f0ba4c27-101a-40b7-9091-8e93ca429664">
          <pickID>smi:local/7fa73bc4-9436-4476-ab3c-2ce63b78662c</pickID>
          <phase>S</phase>
          <azimuth>60.405733635027225</azimuth>
          <distance>0.7108112869884821</distance>
          <timeWeight>0.0</timeWeight>
        </arrival>
        <arrival publicID="smi:local/bb005234-5ef2-4ac9-802c-d0dd75a9d954">
          <pickID>smi:local/26c9f895-be46-4a3b-ae69-2a53fa1ff2ea</pickID>
          <phase>S</phase>
          <azimuth>91.17289270477052</azimuth>
          <distance>0.8089959946602409</distance>
          <timeWeight>0.0</timeWeight>
        </arrival>
        <arrival publicID="smi:local/8fe553a0-7094-4ca4-a614-43847f87e41c">
          <pickID>smi:local/b824146d-95bf-4be5-b3f5-e76c8c6f6c2f</pickID>
          <phase>S</phase>
          <azimuth>301.6956366829071</azimuth>
          <distance>1.0984926410422595</distance>
          <timeWeight>0.0</timeWeight>
        </arrival>
        <arrival publicID="smi:local/a4ae74a6-1539-4776-a1e1-39da4d342ff7">
          <pickID>smi:local/57d57067-6300-40af-8038-1c7ab8130d66</pickID>
          <phase>S</phase>
          <azimuth>251.1094065302727</azimuth>
          <distance>1.042553011285195</distance>
          <timeWeight>0.0</timeWeight>
        </arrival>
        <arrival publicID="smi:local/1594cea9-d49b-436c-b018-1eddf21a0b7e">
          <pickID>smi:local/d643a06b-dd5c-49e3-bd8b-db53ca14612a</pickID>
          <phase>S</phase>
          <azimuth>215.37476438528333</azimuth>
          <distance>0.9278541817518161</distance>
          <timeWeight>0.0</timeWeight>
        </arrival>
        <arrival publicID="smi:local/1817c00a-d66a-4f17-9c59-fc982d74d2f9">
          <pickID>smi:local/95a1e6d9-92b1-449e-ae21-823a03d256e9</pickID>
          <phase>S</phase>
          <azimuth>272.0811046705675</azimuth>
          <distance>0.7807768101056496</distance>
          <timeWeight>1.0</timeWeight>
        </arrival>
        <arrival publicID="smi:local/7cbb98c4-ffa8-4c17-b962-abd1c1fc331d">
          <pickID>smi:local/c299ed82-c29c-4914-a38a-f913b0c74d6d</pickID>
          <phase>S</phase>
          <azimuth>122.86903481430163</azimuth>
          <distance>1.108018344935656</distance>
          <timeWeight>0.0</timeWeight>
        </arrival>
        <arrival publicID="smi:local/8c1ab8e8-46a4-442d-86ac-7b1eb9d1bfcb">
          <pickID>smi:local/4bc146ae-e140-4a60-858b-67867bed25fd</pickID>
          <phase>S</phase>
          <azimuth>83.05521910994251</azimuth>
          <distance>1.3707480461712727</distance>
          <timeWeight>0.0</timeWeight>
        </arrival>
        <arrival publicID="smi:local/3e58cfad-0245-4748-badb-8cbccb5505fa">
          <pickID>smi:local/04d34720-1a3f-4e62-b3b4-805dd5b27d21</pickID>
          <phase>S</phase>
          <azimuth>334.61532046866876</azimuth>
          <distance>1.4074014864041224</distance>
          <timeWeight>0.0</timeWeight>
        </arrival>
        <arrival publicID="smi:local/ccff8563-668b-47e9-a0cd-5250a8e7f6eb">
          <pickID>smi:local/959b1af2-33af-4f60-ac0f-0bb5e9e80413</pickID>
          <phase>S</phase>
          <azimuth>202.7514323917636</azimuth>
          <distance>1.5806961212844186</distance>
          <timeWeight>0.0</timeWeight>
        </arrival>
        <arrival publicID="smi:local/6d397a8d-af80-4b9c-b0e0-8e8f892f5782">
          <pickID>smi:local/66c16522-17a4-46f2-a40a-b9a0a5070f44</pickID>
          <phase>S</phase>
          <azimuth>317.7032711822606</azimuth>
          <distance>1.631246553821759</distance>
          <timeWeight>0.0</timeWeight>
        </arrival>
        <arrival publicID="smi:local/174bf875-9ceb-4e13-9744-e55ce8ef78bb">
          <pickID>smi:local/4e7424cd-8f7c-481e-a616-ce4f14efe6ec</pickID>
          <phase>S</phase>
          <azimuth>325.76722578166925</azimuth>
          <distance>1.660571426287214</distance>
          <timeWeight>0.0</timeWeight>
        </arrival>
        <arrival publicID="smi:local/af86e2aa-47ba-406b-a858-b8e14fc7d505">
          <pickID>smi:local/2eee09fb-50e1-437a-abf0-0121bcc645d4</pickID>
          <phase>S</phase>
          <azimuth>343.69219246581486</azimuth>
          <distance>1.8452211311587552</distance>
          <timeWeight>0.0</timeWeight>
        </arrival>
        <arrival publicID="smi:local/d020cd6c-5ed9-40f5-a7c1-3d6f7760525f">
          <pickID>smi:local/8b038312-57e0-463a-b70e-e566033f19c7</pickID>
          <phase>S</phase>
          <azimuth>152.74624484475356</azimuth>
          <distance>2.0495942832806198</distance>
          <timeWeight>0.0</timeWeight>
        </arrival>
        <arrival publicID="smi:local/cd9620b1-afff-4643-8cd0-6edac046e008">
          <pickID>smi:local/51647489-82a7-4cfe-9092-dee25ba6b469</pickID>
          <phase>S</phase>
          <azimuth>359.9932408325328</azimuth>
          <distance>2.4423000169880766</distance>
          <timeWeight>2.0</timeWeight>
        </arrival>
        <arrival publicID="smi:local/11d7c711-829d-4242-889d-30fb9a44e113">
          <pickID>smi:local/36f38726-3cf3-4e67-be93-373ac3c3fed7</pickID>
          <phase>S</phase>
          <azimuth>166.42910783650663</azimuth>
          <distance>2.5147137926878997</distance>
          <timeWeight>0.0</timeWeight>
        </arrival>
        <arrival publicID="smi:local/3f8dac72-5810-41f5-b5a2-a73fe03247be">
          <pickID>smi:local/e02bfbd2-e228-4e61-b9a5-fbf9c1bc4198</pickID>
          <phase>S</phase>
          <azimuth>176.57072443237502</azimuth>
          <distance>2.983106981473883</distance>
          <timeWeight>0.0</timeWeight>
        </arrival>
        <arrival publicID="smi:local/21fccd29-63a7-4773-9de6-b4a22e7479a4">
          <pickID>smi:local/ef224631-2e80-4664-beba-b367cc641d76</pickID>
          <phase>S</phase>
          <azimuth>122.94957614774965</azimuth>
          <distance>0.3132676075105885</distance>
          <timeWeight>2.0</timeWeight>
        </arrival>
        <arrival publicID="smi:local/d0651303-7bb6-4959-b833-ee77bb7af269">
          <pickID>smi:local/a8359c09-d0ae-4780-91cc-7e066a4b9c95</pickID>
          <phase>P</phase>
          <azimuth>122.94957614774965</azimuth>
          <distance>0.3132676075105885</distance>
          <timeWeight>0.0</timeWeight>
        </arrival>
        <arrival publicID="smi:local/caa95079-bf74-4d73-8f53-6770460cad30">
          <pickID>smi:local/e796da22-8fb5-43e8-8067-6c48615db9af</pickID>
          <phase>P</phase>
          <azimuth>129.39561455102708</azimuth>
          <distance>0.3806616455876089</distance>
          <timeWeight>0.0</timeWeight>
        </arrival>
        <arrival publicID="smi:local/18069745-54e8-45df-925a-f1b9107541bf">
          <pickID>smi:local/b6c20f2f-7d41-4fd8-a20b-525beecaba2f</pickID>
          <phase>S</phase>
          <azimuth>129.39561455102708</azimuth>
          <distance>0.3806616455876089</distance>
          <timeWeight>1.0</timeWeight>
        </arrival>
        <arrival publicID="smi:local/51f8368a-a25a-40a4-bb50-783609559141">
          <pickID>smi:local/c51b0977-8c67-486a-b296-dca44693af12</pickID>
          <phase>P</phase>
          <azimuth>140.8652599820076</azimuth>
          <distance>0.5907690654598021</distance>
          <timeWeight>0.0</timeWeight>
        </arrival>
        <arrival publicID="smi:local/a01c94d6-f4a9-4b45-af76-e9a4539da57d">
          <pickID>smi:local/fde0c977-ca5b-4747-bb7c-5b3cfa041b1c</pickID>
          <phase>S</phase>
          <azimuth>140.8652599820076</azimuth>
          <distance>0.5907690654598021</distance>
          <timeWeight>1.0</timeWeight>
        </arrival>
        <arrival publicID="smi:local/5729b94b-2e7b-495b-9834-b498b5f58ce9">
          <pickID>smi:local/a6958f97-3c92-4c5b-b8f4-fc62968f72b3</pickID>
          <phase>P</phase>
          <azimuth>109.91438652989396</azimuth>
          <distance>0.59116745460011</distance>
          <timeWeight>1.0</timeWeight>
        </arrival>
        <arrival publicID="smi:local/c8deebaf-4379-4dd4-a854-b56c3413b8c5">
          <pickID>smi:local/e7ed617d-c922-4302-8190-a33e0b14a385</pickID>
          <phase>S</phase>
          <azimuth>109.91438652989396</azimuth>
          <distance>0.59116745460011</distance>
          <timeWeight>2.0</timeWeight>
        </arrival>
        <arrival publicID="smi:local/a14a2525-9e00-497d-9041-019be35b2103">
          <pickID>smi:local/e1bf3b17-2634-429b-b30e-a9030501fa31</pickID>
          <phase>P</phase>
          <azimuth>128.05244178901958</azimuth>
          <distance>0.6828486759274529</distance>
          <timeWeight>2.0</timeWeight>
        </arrival>
        <arrival publicID="smi:local/b5262f30-5aac-415f-a580-ae459de92a98">
          <pickID>smi:local/2e7b228c-4b65-40a5-90a1-f0a3978f917d</pickID>
          <phase>S</phase>
          <azimuth>128.05244178901958</azimuth>
          <distance>0.6828486759274529</distance>
          <timeWeight>0.0</timeWeight>
        </arrival>
        <arrival publicID="smi:local/cf9119c9-6272-4b43-bffe-a5f1126ef52a">
          <pickID>smi:local/5a7760d4-16f2-48f8-97ba-1bc833398f2e</pickID>
          <phase>S</phase>
          <azimuth>172.41611586286913</azimuth>
          <distance>0.7345246881283259</distance>
          <timeWeight>0.0</timeWeight>
        </arrival>
        <arrival publicID="smi:local/4a51def3-0d65-4506-95c1-c1040b29585d">
          <pickID>smi:local/ade09ec4-3271-444d-919e-730e681d4c2c</pickID>
          <phase>P</phase>
          <azimuth>132.62384264089812</azimuth>
